business_name,phone,city,state,website,tax_id
Boomes Autos of Alabama,205-377-6957,Birmingham,Alabama,http://www.boomesautosofalabama.com,so-749-iz-2m08
Povlsen Autos of Ohio,330-751-7738,Youngstown,Ohio,http://www.povlsenautosofohio.com,it-231-lp-a91h
Cain Autos of Missouri,816-943-0220,Kansas City,Missouri,http://www.cainautosofmissouri.com,jg-465-96-ll0y
Shelper Autos of Nevada,702-146-4571,North Las Vegas,Nevada,http://www.shelperautosofnevada.com,ty-979-34-gqcc
Sollime Autos of Minnesota,651-799-5879,Saint Paul,Minnesota,http://www.sollimeautosofminnesota.com,oq-573-uz-btx2
Storry Autos of Ohio,614-815-0106,Columbus,Ohio,http://www.storryautosofohio.com,hv-955-p2-kttc
Gorgen Autos of Pennsylvania,412-217-5065,Pittsburgh,Pennsylvania,http://www.gorgenautosofpennsylvania.com,iq-362-30-zt4e
Macak Autos of California,209-725-0500,Stockton,California,http://www.macakautosofcalifornia.com,ur-408-74-b4sf
Joddins Autos of Louisiana,504-960-1378,New Orleans,Louisiana,http://www.joddinsautosoflouisiana.com,mi-987-tz-bt9t
Skipperbottom Autos of Texas,432-961-4001,Odessa,Texas,http://www.skipperbottomautosoftexas.com,ce-854-67-d35i
Cherry Autos of Alabama,205-585-6827,Birmingham,Alabama,http://www.cherryautosofalabama.com,gq-944-4s-tji8
Darnell Autos of Michigan,313-477-2911,Southfield,Michigan,http://www.darnellautosofmichigan.com,aa-111-8d-5mnq
Mildner Autos of Louisiana,318-162-8099,Shreveport,Louisiana,http://www.mildnerautosoflouisiana.com,kt-712-1l-mao1
Hanalan Autos of Louisiana,504-657-0685,New Orleans,Louisiana,http://www.hanalanautosoflouisiana.com,nd-153-3h-gmao
Christophe Autos of Wisconsin,414-278-0508,Milwaukee,Wisconsin,http://www.christopheautosofwisconsin.com,zg-666-vm-fszo
Palek Autos of District of Columbia,202-350-0067,Washington,District of Columbia,http://www.palekautosofdistrictofcolumbia.com,vy-199-s4-syev
Nelsen Autos of Illinois,847-805-4885,Palatine,Illinois,http://www.nelsenautosofillinois.com,rs-789-jc-tkyv
Newton Autos of Kansas,316-245-6927,Wichita,Kansas,http://www.newtonautosofkansas.com,xn-741-n2-40p4
Duckworth Autos of Washington,253-606-7728,Olympia,Washington,http://www.duckworthautosofwashington.com,mm-178-n6-k1u7
Major Autos of Florida,772-349-3553,Vero Beach,Florida,http://www.majorautosofflorida.com,ld-291-94-9d0s
Bonas Autos of Texas,915-449-4965,El Paso,Texas,http://www.bonasautosoftexas.com,mb-971-yk-s7oh
Mitkov Autos of California,951-861-9553,Corona,California,http://www.mitkovautosofcalifornia.com,re-518-ib-zrl7
Alwell Autos of California,916-150-1385,Sacramento,California,http://www.alwellautosofcalifornia.com,cb-502-52-21s0
McSporrin Autos of Massachusetts,617-969-5478,Boston,Massachusetts,http://www.mcsporrinautosofmassachusetts.com,de-815-rh-9iok
Metzke Autos of Texas,512-431-3798,Austin,Texas,http://www.metzkeautosoftexas.com,hy-494-19-2huj
Curson Autos of Illinois,217-621-0142,Decatur,Illinois,http://www.cursonautosofillinois.com,yy-831-d8-hs5h
Pendlenton Autos of Colorado,970-665-1710,Grand Junction,Colorado,http://www.pendlentonautosofcolorado.com,pl-558-3g-pqwi
Parkisson Autos of California,619-440-0762,San Diego,California,http://www.parkissonautosofcalifornia.com,ck-910-sh-y8h1
McCormack Autos of West Virginia,304-274-1220,Morgantown,West Virginia,http://www.mccormackautosofwestvirginia.com,bo-738-ew-uqi0
Besant Autos of Alabama,334-243-2986,Montgomery,Alabama,http://www.besantautosofalabama.com,wb-304-ef-13m6
Jahan Autos of Washington,425-892-6189,Seattle,Washington,http://www.jahanautosofwashington.com,kw-081-ot-wxa0
Gladman Autos of New York,212-116-6008,New York City,New York,http://www.gladmanautosofnewyork.com,sz-886-mw-g0l2
Andrysiak Autos of Iowa,563-431-2587,Davenport,Iowa,http://www.andrysiakautosofiowa.com,fo-838-xl-o0y4
Junes Autos of Texas,915-918-3939,El Paso,Texas,http://www.junesautosoftexas.com,tv-583-rx-l0uh
Cleaveland Autos of Indiana,812-224-7416,Evansville,Indiana,http://www.cleavelandautosofindiana.com,ik-354-5g-zciq
Meadley Autos of California,858-233-6180,San Diego,California,http://www.meadleyautosofcalifornia.com,gk-672-pj-jinw
Minor Autos of Texas,512-127-4038,Austin,Texas,http://www.minorautosoftexas.com,bl-971-uq-jqvd
Camelin Autos of North Dakota,701-722-7969,Fargo,North Dakota,http://www.camelinautosofnorthdakota.com,kv-561-vq-6hc4
Wallace Autos of Florida,850-658-6499,Pensacola,Florida,http://www.wallaceautosofflorida.com,cd-040-27-krbt
Suffield Autos of New Jersey,862-967-5454,Newark,New Jersey,http://www.suffieldautosofnewjersey.com,jx-392-qy-fm7u
Erswell Autos of District of Columbia,202-705-1171,Washington,District of Columbia,http://www.erswellautosofdistrictofcolumbia.com,hq-746-i2-43ue
Courtman Autos of District of Columbia,202-673-0179,Washington,District of Columbia,http://www.courtmanautosofdistrictofcolumbia.com,cd-710-rh-urq9
Lemary Autos of Massachusetts,508-789-0417,Brockton,Massachusetts,http://www.lemaryautosofmassachusetts.com,yo-113-vo-6uak
Twidell Autos of Kentucky,859-291-5793,Lexington,Kentucky,http://www.twidellautosofkentucky.com,yh-406-py-rwfb
Styant Autos of California,916-659-3198,Sacramento,California,http://www.styantautosofcalifornia.com,fy-054-vj-0jko
Caspell Autos of Alabama,205-234-4141,Birmingham,Alabama,http://www.caspellautosofalabama.com,yl-542-72-2mj6
Claypool Autos of Texas,210-660-9057,San Antonio,Texas,http://www.claypoolautosoftexas.com,bo-247-mz-cscu
Every Autos of North Carolina,704-630-8838,Charlotte,North Carolina,http://www.everyautosofnorthcarolina.com,ji-918-3l-a49n
Mertgen Autos of Alabama,334-151-6177,Montgomery,Alabama,http://www.mertgenautosofalabama.com,ks-415-c7-hemo
Meeler Autos of San Diego,614-141-2117,San Diego,California,http://www.meelerautosofSD.com,rs-423-c7-hebo